{
    "links": {
        "self": "http://www.neowsapp.com/rest/v1/neo/3071769?api_key=iIulBulltgU6a56xZRHN4H3l9WmuAYTsLGpBGhQ2"
    },
    "id": "3071769",
    "neo_reference_id": "3071769",
    "name": "(2001 FB90)",
    "designation": "2001 FB90",
    "nasa_jpl_url": "http://ssd.jpl.nasa.gov/sbdb.cgi?sstr=3071769",
    "absolute_magnitude_h": 19.8,
    "estimated_diameter": {
        "kilometers": {
            "estimated_diameter_min": 0.2914439045,
            "estimated_diameter_max": 0.6516883822
        },
        "meters": {
            "estimated_diameter_min": 291.4439045349,
            "estimated_diameter_max": 651.6883821679
        },
        "miles": {
            "estimated_diameter_min": 0.1810947904,
            "estimated_diameter_max": 0.4049402617
        },
        "feet": {
            "estimated_diameter_min": 956.1808197541,
            "estimated_diameter_max": 2138.0853117517
        }
    },
    "is_potentially_hazardous_asteroid": true,
    "close_approach_data": [
        {
            "close_approach_date": "2001-04-25",
            "close_approach_date_full": "2001-Apr-25 02:47",
            "epoch_date_close_approach": 988166820000,
            "relative_velocity": {
                "kilometers_per_second": "16.3488082728",
                "kilometers_per_hour": "58855.7097822168",
                "miles_per_hour": "36570.6492255113"
            },
            "miss_distance": {
                "astronomical": "0.3075848785",
                "lunar": "119.6505177365",
                "kilometers": "46014042.667808795",
                "miles": "28591800.294379571"
            },
            "orbiting_body": "Earth"
        }
    ],
    "orbital_data": {
        "orbit_id": "25",
        "orbit_determination_date": "2017-04-06 09:16:27",
        "first_observation_date": "2001-03-17",
        "last_observation_date": "2001-03-28",
        "data_arc_in_days": 11,
        "observations_used": 34,
        "orbit_uncertainty": "9",
        "minimum_orbit_intersection": ".0318224",
        "jupiter_tisserand_invariant": "2.981",
        "epoch_osculation": "2451993.5",
        "eccentricity": ".7812157977276931",
        "semi_major_axis": "2.448307800501923",
        "inclination": "1.916195633924237",
        "ascending_node_longitude": "265.9844980689276",
        "orbital_period": "1399.256881020403",
        "perihelion_distance": ".5356510690498796",
        "perihelion_argument": "14.67422907574944",
        "aphelion_distance": "4.360964531953967",
        "perihelion_time": "2452059.703692558737",
        "mean_anomaly": "342.9671523189045",
        "mean_motion": ".2572794208719355",
        "equinox": "J2000",
        "orbit_class": {
            "orbit_class_type": "APO",
            "orbit_class_description": "Near-Earth asteroid orbits which cross the Earth’s orbit similar to that of 1862 Apollo",
            "orbit_class_range": "a (semi-major axis) > 1.0 AU; q (perihelion) < 1.017 AU"
        }
    },
    "is_sentry_object": false
}